{"type": "FeatureCollection", "features": [ {"type": "Feature", "properties": {"norad_id": 29750, "name": "FENGYUN 1C DEB", "group": "fengyun-1c-debris", "lat": -60.83265935487876, "lon": -175.824168606547, "alt_km": 850.1710310490798, "timestamp": "2025-12-17T04:57:44.637728+00:00", "meta": {"OBJECT_NAME": "FENGYUN 1C DEB", "OBJECT_ID": "1999-025AQ", "EPOCH": "2025-12-17T00:32:53.401056", "MEAN_MOTION": 14.09647634, "ECCENTRICITY": 0.00350515, "INCLINATION": 98.7543, "RA_OF_ASC_NODE": 20.0233, "ARG_OF_PERICENTER": 288.9995, "MEAN_ANOMALY": 100.4428, "EPHEMERIS_TYPE": 0, "CLASSIFICATION_TYPE": "U", "NORAD_CAT_ID": 29750, "ELEMENT_SET_NO": 999, "REV_AT_EPOCH": 97134, "BSTAR": 0.00028124289, "MEAN_MOTION_DOT": 4.52e-06, "MEAN_MOTION_DDOT": 0}, "tle": {"line1": "1 29750U 99025AQ  25351.02284029  .00000452  00000+0  28124-3 0  9991", "line2": "2 29750  98.7543  20.0233 0035051 288.9995 100.4428 14.09647634971342"}}, "geometry": {"type": "Point", "coordinates": [-175.824168606547, -60.83265935487876]}}, {"type": "Feature", "properties": {"norad_id": 29751, "name": "FENGYUN 1C DEB", "group": "fengyun-1c-debris", "lat": -63.14895575430684, "lon": -178.3182565648951, "alt_km": 850.2747768665186, "timestamp": "2025-12-17T04:57:44.637737+00:00", "meta": {"OBJECT_NAME": "FENGYUN 1C DEB", "OBJECT_ID": "1999-025AR", "EPOCH": "2025-12-17T00:35:35.732832", "MEAN_MOTION": 14.23632634, "ECCENTRICITY": 0.0090042, "INCLINATION": 98.541, "RA_OF_ASC_NODE": 18.7731, "ARG_OF_PERICENTER": 126.8598, "MEAN_ANOMALY": 264.1429, "EPHEMERIS_TYPE": 0, "CLASSIFICATION_TYPE": "U", "NORAD_CAT_ID": 29751, "ELEMENT_SET_NO": 999, "REV_AT_EPOCH": 98134, "BSTAR": 0.00014876304, "MEAN_MOTION_DOT": 3.12e-06, "MEAN_MOTION_DDOT": 0}, "tle": {"line1": "1 29751U 99025AR  25351.02471913  .00000312  00000+0  14876-3 0  9996", "line2": "2 29751  98.5410  18.7731 0090042 126.8598 264.1429 14.23632634981341"}}, "geometry": {"type": "Point", "coordinates": [-178.3182565648951, -63.14895575430684]}}, {"type": "Feature", "properties": {"norad_id": 29754, "name": "FENGYUN 1C DEB", "group": "fengyun-1c-debris", "lat": -52.938582500643676, "lon": 105.91053992324785, "alt_km": 830.278504005697, "timestamp": "2025-12-17T04:57:44.637747+00:00", "meta": {"OBJECT_NAME": "FENGYUN 1C DEB", "OBJECT_ID": "1999-025AU", "EPOCH": "2025-12-16T05:40:06.198240", "MEAN_MOTION": 14.19164728, "ECCENTRICITY": 0.00361576, "INCLINATION": 98.8843, "RA_OF_ASC_NODE": 92.9849, "ARG_OF_PERICENTER": 229.4498, "MEAN_ANOMALY": 160.413, "EPHEMERIS_TYPE": 0, "CLASSIFICATION_TYPE": "U", "NORAD_CAT_ID": 29754, "ELEMENT_SET_NO": 999, "REV_AT_EPOCH": 97404, "BSTAR": 0.00077669493, "MEAN_MOTION_DOT": 1.591e-05, "MEAN_MOTION_DDOT": 0}, "tle": {"line1": "1 29754U 99025AU  25350.23618285  .00001591  00000+0  77669-3 0  9995", "line2": "2 29754  98.8843  92.9849 0036157 229.4498 160.4130 14.19164728974042"}}, "geometry": {"type": "Point", "coordinates": [105.91053992324785, -52.938582500643676]}}, {"type": "Feature", "properties": {"norad_id": 29758, "name": "FENGYUN 1C DEB", "group": "fengyun-1c-debris", "lat": -74.24185761762982, "lon": -106.45706239055092, "alt_km": 750.0664288946009, "timestamp": "2025-12-17T04:57:44.637756+00:00", "meta": {"OBJECT_NAME": "FENGYUN 1C DEB", "OBJECT_ID": "1999-025AY", "EPOCH": "2025-12-16T04:59:12.357888", "MEAN_MOTION": 14.41042365, "ECCENTRICITY": 0.0021454, "INCLINATION": 98.8551, "RA_OF_ASC_NODE": 106.0446, "ARG_OF_PERICENTER": 296.8238, "MEAN_ANOMALY": 180.6701, "EPHEMERIS_TYPE": 0, "CLASSIFICATION_TYPE": "U", "NORAD_CAT_ID": 29758, "ELEMENT_SET_NO": 999, "REV_AT_EPOCH": 97721, "BSTAR": 0.0017588178, "MEAN_MOTION_DOT": 5.63e-05, "MEAN_MOTION_DDOT": 0}, "tle": {"line1": "1 29758U 99025AY  25350.20778192  .00005630  00000+0  17588-2 0  9991", "line2": "2 29758  98.8551 106.0446 0021454 296.8238 180.6701 14.41042365977213"}}, "geometry": {"type": "Point", "coordinates": [-106.45706239055092, -74.24185761762982]}}, {"type": "Feature", "properties": {"norad_id": 29760, "name": "FENGYUN 1C DEB", "group": "fengyun-1c-debris", "lat": 5.276292897164111, "lon": 174.0623194154913, "alt_km": 775.0763303752683, "timestamp": "2025-12-17T04:57:44.637765+00:00", "meta": {"OBJECT_NAME": "FENGYUN 1C DEB", "OBJECT_ID": "1999-025BA", "EPOCH": "2025-12-16T23:01:28.961472", "MEAN_MOTION": 14.08290896, "ECCENTRICITY": 0.01310092, "INCLINATION": 98.7623, "RA_OF_ASC_NODE": 353.0059, "ARG_OF_PERICENTER": 161.6769, "MEAN_ANOMALY": 198.9185, "EPHEMERIS_TYPE": 0, "CLASSIFICATION_TYPE": "U", "NORAD_CAT_ID": 29760, "ELEMENT_SET_NO": 999, "REV_AT_EPOCH": 97152, "BSTAR": 0.00015359199, "MEAN_MOTION_DOT": 2.42e-06, "MEAN_MOTION_DDOT": 0}, "tle": {"line1": "1 29760U 99025BA  25350.95936298  .00000242  00000+0  15359-3 0  9998", "line2": "2 29760  98.7623 353.0059 0131009 161.6769 198.9185 14.08290896971528"}}, "geometry": {"type": "Point", "coordinates": [174.0623194154913, 5.276292897164111]}}, {"type": "Feature", "properties": {"norad_id": 29762, "name": "FENGYUN 1C DEB", "group": "fengyun-1c-debris", "lat": 11.275062046505811, "lon": -27.840527874608465, "alt_km": 719.8410114390126, "timestamp": "2025-12-17T04:57:44.637775+00:00", "meta": {"OBJECT_NAME": "FENGYUN 1C DEB", "OBJECT_ID": "1999-025BC", "EPOCH": "2025-12-16T22:24:35.803008", "MEAN_MOTION": 14.2259221, "ECCENTRICITY": 0.02037398, "INCLINATION": 98.5796, "RA_OF_ASC_NODE": 333.6182, "ARG_OF_PERICENTER": 323.437, "MEAN_ANOMALY": 88.9133, "EPHEMERIS_TYPE": 0, "CLASSIFICATION_TYPE": "U", "NORAD_CAT_ID": 29762, "ELEMENT_SET_NO": 999, "REV_AT_EPOCH": 98008, "BSTAR": 0.00035632502, "MEAN_MOTION_DOT": 9.37e-06, "MEAN_MOTION_DDOT": 0}, "tle": {"line1": "1 29762U 99025BC  25350.93374772  .00000937  00000+0  35633-3 0  9999", "line2": "2 29762  98.5796 333.6182 0203739 323.4370  88.9133 14.22592210980089"}}, "geometry": {"type": "Point", "coordinates": [-27.840527874608465, 11.275062046505811]}}, {"type": "Feature", "properties": {"norad_id": 29763, "name": "FENGYUN 1C DEB", "group": "fengyun-1c-debris", "lat": -1.6848370271745594, "lon": -29.257593649934172, "alt_km": 960.6201945450384, "timestamp": "2025-12-17T04:57:44.637784+00:00", "meta": {"OBJECT_NAME": "FENGYUN 1C DEB", "OBJECT_ID": "1999-025BD", "EPOCH": "2025-12-16T22:24:50.656896", "MEAN_MOTION": 14.0787985, "ECCENTRICITY": 0.01275995, "INCLINATION": 98.7612, "RA_OF_ASC_NODE": 330.2177, "ARG_OF_PERICENTER": 168.672, "MEAN_ANOMALY": 247.8894, "EPHEMERIS_TYPE": 0, "CLASSIFICATION_TYPE": "U", "NORAD_CAT_ID": 29763, "ELEMENT_SET_NO": 999, "REV_AT_EPOCH": 97109, "BSTAR": 8.2764723e-05, "MEAN_MOTION_DOT": 1.09e-06, "MEAN_MOTION_DDOT": 0}, "tle": {"line1": "1 29763U 99025BD  25350.93391964  .00000109  00000+0  82765-4 0  9992", "line2": "2 29763  98.7612 330.2177 0127599 168.6720 247.8894 14.07879850971095"}}, "geometry": {"type": "Point", "coordinates": [-29.257593649934172, -1.6848370271745594]}}, {"type": "Feature", "properties": {"norad_id": 29765, "name": "FENGYUN 1C DEB", "group": "fengyun-1c-debris", "lat": 29.172674089210602, "lon": -165.7694167638546, "alt_km": 869.7728848596989, "timestamp": "2025-12-17T04:57:44.637794+00:00", "meta": {"OBJECT_NAME": "FENGYUN 1C DEB", "OBJECT_ID": "1999-025BF", "EPOCH": "2025-12-16T21:57:35.256960", "MEAN_MOTION": 14.02153254, "ECCENTRICITY": 0.00600445, "INCLINATION": 98.83, "RA_OF_ASC_NODE": 8.9698, "ARG_OF_PERICENTER": 81.0801, "MEAN_ANOMALY": 36.6242, "EPHEMERIS_TYPE": 0, "CLASSIFICATION_TYPE": "U", "NORAD_CAT_ID": 29765, "ELEMENT_SET_NO": 999, "REV_AT_EPOCH": 96809, "BSTAR": -2.4192806e-05, "MEAN_MOTION_DOT": -8e-07, "MEAN_MOTION_DDOT": 0}, "tle": {"line1": "1 29765U 99025BF  25350.91499140 -.00000080  00000+0 -24193-4 0  9998", "line2": "2 29765  98.8300   8.9698 0060044  81.0801  36.6242 14.02153254968093"}}, "geometry": {"type": "Point", "coordinates": [-165.7694167638546, 29.172674089210602]}}, {"type": "Feature", "properties": {"norad_id": 29766, "name": "FENGYUN 1C DEB", "group": "fengyun-1c-debris", "lat": -35.47119883193908, "lon": 114.3400306829095, "alt_km": 855.952741303232, "timestamp": "2025-12-17T04:57:44.637804+00:00", "meta": {"OBJECT_NAME": "FENGYUN 1C DEB", "OBJECT_ID": "1999-025BG", "EPOCH": "2025-12-16T19:37:33.392640", "MEAN_MOTION": 13.97068614, "ECCENTRICITY": 0.0145851, "INCLINATION": 98.6855, "RA_OF_ASC_NODE": 300.2252, "ARG_OF_PERICENTER": 276.9582, "MEAN_ANOMALY": 144.8569, "EPHEMERIS_TYPE": 0, "CLASSIFICATION_TYPE": "U", "NORAD_CAT_ID": 29766, "ELEMENT_SET_NO": 999, "REV_AT_EPOCH": 95861, "BSTAR": 0.0010330408, "MEAN_MOTION_DOT": 1.536e-05, "MEAN_MOTION_DDOT": 0}, "tle": {"line1": "1 29766U 99025BG  25350.81774760  .00001536  00000+0  10330-2 0  9993", "line2": "2 29766  98.6855 300.2252 0145851 276.9582 144.8569 13.97068614958611"}}, "geometry": {"type": "Point", "coordinates": [114.3400306829095, -35.47119883193908]}}, {"type": "Feature", "properties": {"norad_id": 29767, "name": "FENGYUN 1C DEB", "group": "fengyun-1c-debris", "lat": -30.049467678768586, "lon": 134.6876488399361, "alt_km": 1116.9389728444721, "timestamp": "2025-12-17T04:57:44.637813+00:00", "meta": {"OBJECT_NAME": "FENGYUN 1C DEB", "OBJECT_ID": "1999-025BH", "EPOCH": "2025-12-16T21:22:50.800800", "MEAN_MOTION": 14.03383908, "ECCENTRICITY": 0.03332552, "INCLINATION": 98.1977, "RA_OF_ASC_NODE": 319.1858, "ARG_OF_PERICENTER": 49.4812, "MEAN_ANOMALY": 4.4893, "EPHEMERIS_TYPE": 0, "CLASSIFICATION_TYPE": "U", "NORAD_CAT_ID": 29767, "ELEMENT_SET_NO": 999, "REV_AT_EPOCH": 95658, "BSTAR": 0.0017428397, "MEAN_MOTION_DOT": 4.425e-05, "MEAN_MOTION_DDOT": 0}, "tle": {"line1": "1 29767U 99025BH  25350.89086575  .00004425  00000+0  17428-2 0  9997", "line2": "2 29767  98.1977 319.1858 0333255  49.4812   4.4893 14.03383908956588"}}, "geometry": {"type": "Point", "coordinates": [134.6876488399361, -30.049467678768586]}}]}